MONITOR-3 (RS58S)       
1 57180U 23091Q   26162.95862941  .00009513  00000+0  35293-3 0  9999
2 57180  97.5091 226.3661 0013098 116.8255 243.4325 15.27735150163491
MONITOR-4 (RS57S)       
1 57182U 23091S   26162.93798003  .00009126  00000+0  33777-3 0  9991
2 57182  97.5085 226.3165 0013099 117.2390 243.0185 15.27824419163498
MONITOR-2 (RS39S)       
1 57184U 23091U   26162.91056309  .00004709  00000+0  22881-3 0  9993
2 57184  97.5079 221.2272 0012568 127.1985 233.0398 15.18860563163154
SVYATOBOR 1 (RS60S)     
1 57187U 23091X   26162.94658874  .00008245  00000+0  31793-3 0  9995
2 57187  97.5097 226.7345 0010911 110.0732 250.1682 15.26524550163517
HORS 1                  
1 57188U 23091Y   26162.93248880  .00008495  00000+0  32649-3 0  9995
2 57188  97.5075 226.4835 0010378 109.8091 250.4268 15.26628085163517
VIZARD-METEO (RS38S)    
1 57189U 23091Z   26162.93574340  .00015782  00000+0  45374-3 0  9995
2 57189  97.5099 232.3157 0008561  93.5503 266.6720 15.35857512163886
SITRO-AIS 6 (CHIRKIN)   
1 57192U 23091AC  26162.93360451  .00009238  00000+0  36302-3 0  9995
2 57192  97.5076 225.9299 0013070 122.6424 237.6077 15.25833243163480
SITRO-AIS 8 (ANOKHIN)   
1 57193U 23091AD  26162.92746672  .00013787  00000+0  44768-3 0  9997
2 57193  97.5066 228.3444 0011860 116.1094 244.1370 15.31990708163649
SITRO-AIS 7 (FARTUSHNIY)
1 57194U 23091AE  26162.93568302  .00009161  00000+0  36337-3 0  9995
2 57194  97.5074 225.7597 0012909 123.5939 236.6533 15.25523108163471
AVION KALUGA 650        
1 57195U 23091AF  26162.89680261  .00005174  00000+0  24096-3 0  9999
2 57195  97.5097 222.4945 0011760 125.2415 234.9923 15.20295736163225
HORS 2                  
1 57196U 23091AG  26162.93834174  .00013367  00000+0  43764-3 0  9995
2 57196  97.5097 229.8964 0009498 103.4350 256.7950 15.31758212163721
A-SEANSAT-PG1           
1 57197U 23091AH  26162.93266351  .00017429  00000+0  48625-3 0  9996
2 57197  97.5089 232.4021 0008504 100.6268 259.5934 15.36778035163904
SITRO-AIS 10 (BURDAEV)  
1 57199U 23091AK  26162.91600887  .00018208  00000+0  48190-3 0  9995
2 57199  97.5089 233.3325 0007799  95.8949 264.3185 15.38408681163955
SITRO-AIS 9 (SHCHUKIN)  
1 57201U 23091AM  26162.94074119  .00018137  00000+0  48753-3 0  9991
2 57201  97.5087 233.0919 0008052  95.8724 264.3439 15.37927684163946
UTMN 2 (RS27S)          
1 57203U 23091AP  26162.90079718  .00011748  00000+0  38308-3 0  9995
2 57203  97.5096 230.0487 0009469  99.3925 260.8387 15.31920910163739
SITRO-AIS 12 (SMIRENNIY)
1 57204U 23091AQ  26162.93235449  .00017984  00000+0  47900-3 0  9990
2 57204  97.5100 233.5471 0007620  91.0778 269.1340 15.38216181163960
SITRO-AIS 11 (SHEFFER)  
1 57208U 23091AU  26162.94721610  .00018309  00000+0  48098-3 0  9996
2 57208  97.5099 233.8057 0007533  90.8154 269.3954 15.38638919163984
H2SAT (HEINRICH HERTZ)  
1 57213U 23093A   26162.62334442  .00000019  00000+0  00000+0 0  9998
2 57213   0.0589 109.4090 0000654  54.0522 321.6084  1.00270179 10864
KUZGTU 1 (RS47S)        
1 57217U 23091AV  26162.93214097  .00011588  00000+0  40382-3 0  9991
2 57217  97.5073 227.3588 0012347 114.2109 246.0423 15.29740183163578
QIANKUN-1               
1 57422U 23103B   26161.63652352  .00015936  17687-5  19495-4 0  9997
2 57422  96.1537 206.9401 0027936 148.1317 212.1666 16.07641077166249
FENGYUN 3F              
1 57490U 23111A   26162.90071613  .00000025  00000+0  32404-4 0  9990
2 57490  98.6841 233.0077 0001593  97.1231 263.0127 14.19938181148117
HJ-2F                   
1 57519U 23116A   26162.99384566  .00006653  00000+0  29188-3 0  9997
2 57519  97.3841 168.3028 0010276  67.4415 292.7908 15.22246500157964
XRISM                   
1 57800U 23137A   26162.91098969  .00004390  00000+0  24091-3 0  9998
2 57800  31.0029  33.7769 0007946 270.9614  89.0115 15.12420473152064
METEOR-M2 4             
1 59051U 24039A   26162.97812124  .00000008  00000+0  23139-4 0  9998
2 59051  98.7008 122.3417 0006983 175.7094 184.4145 14.22429069118526
GRBBETA                 
1 60237U 24128C   26162.77778947  .00003149  00000+0  22206-3 0  9999
2 60237  61.9897 235.2445 0041358 133.4824 226.9720 15.06604687105457
TRANSPORTER-11 OBJECT A 
1 60468U 24149A   26162.80057852  .00007732  00000+0  24639-3 0  9991
2 60468  97.3735 242.7473 0002310 215.8400 144.2688 15.32819437101238
WARATAH SEED-1          
1 60469U 24149B   26162.89898683  .00012176  00000+0  35160-3 0  9995
2 60469  97.3693 243.4689 0001056 193.3965 166.7250 15.35812544101308
PHISAT 2                
1 60470U 24149C   26162.75328758  .00006425  00000+0  21730-3 0  9991
2 60470  97.3759 241.9997 0000529 182.1908 177.9331 15.30970025101167
LEMUR-2-TOMATOKECHUP    
1 60471U 24149D   26162.96070568  .00010107  00000+0  29131-3 0  9993
2 60471  97.3800 244.9943 0000941 187.6521 172.4709 15.35920487101361
